start=new Date('2023-01-14T00:00:00.000Z').valueOf();
sats=[{"ECCENTRICITY":"0.00012800","TIME_SYSTEM":"UTC","CENTER_NAME":"EARTH","RCS_SIZE":"LARGE","ELEMENT_SET_NO":"999","EPHEMERIS_TYPE":"0","MEAN_MOTION_DDOT":"0.0000000000000","SEMIMAJOR_AXIS":"6925.355","RA_OF_ASC_NODE":"159.2920","MEAN_ANOMALY":"265.4055","ARG_OF_PERICENTER":"94.7080","MEAN_ELEMENT_THEORY":"SGP4","REF_FRAME":"TEME","PERIAPSIS":"546.334","OBJECT_TYPE":"PAYLOAD","EPOCH":"2023-01-13T13:12:55.135296","MEAN_MOTION":"15.06397885","FILE":"3743417","DECAY_DATE":null,"SITE":"AFETR","NORAD_CAT_ID":"47380","MEAN_MOTION_DOT":"-0.00000060","TLE_LINE2":"2 47380  53.0540 159.2920 0001280  94.7080 265.4055 15.06397885109962","PERIOD":"95.592","OBJECT_ID":"2021-005AH","INCLINATION":"53.0540","COUNTRY_CODE":"US","LAUNCH_DATE":"2021-01-20","APOAPSIS":"548.106","BSTAR":"0.00001486700000","GP_ID":"222939274","OBJECT_NAME":"STARLINK-2100","CLASSIFICATION_TYPE":"U","REV_AT_EPOCH":"10996","TLE_LINE1":"1 47380U 21005AH  23013.55063814 -.00000060  00000-0  14867-4 0  9998"},{"APOAPSIS":"548.127","LAUNCH_DATE":"2021-01-20","COUNTRY_CODE":"US","TLE_LINE1":"1 47381U 21005AJ  23013.76580539  .00002927  00000-0  21531-3 0  9998","OBJECT_NAME":"STARLINK-2101","CLASSIFICATION_TYPE":"U","REV_AT_EPOCH":"10992","GP_ID":"222972795","BSTAR":"0.00021531000000","SITE":"AFETR","FILE":"3743722","DECAY_DATE":null,"MEAN_MOTION":"15.06401580","EPOCH":"2023-01-13T18:22:45.585696","OBJECT_TYPE":"PAYLOAD","INCLINATION":"53.0532","TLE_LINE2":"2 47381  53.0532 163.3990 0001326  85.9204 274.1937 15.06401580109928","MEAN_MOTION_DOT":"0.00002927","PERIOD":"95.592","OBJECT_ID":"2021-005AJ","NORAD_CAT_ID":"47381","MEAN_ANOMALY":"274.1937","ARG_OF_PERICENTER":"85.9204","RA_OF_ASC_NODE":"163.3990","MEAN_MOTION_DDOT":"0.0000000000000","SEMIMAJOR_AXIS":"6925.344","EPHEMERIS_TYPE":"0","ELEMENT_SET_NO":"999","PERIAPSIS":"546.290","REF_FRAME":"TEME","MEAN_ELEMENT_THEORY":"SGP4","TIME_SYSTEM":"UTC","ECCENTRICITY":"0.00013260","RCS_SIZE":"LARGE","CENTER_NAME":"EARTH"},{"CENTER_NAME":"EARTH","RCS_SIZE":"LARGE","ECCENTRICITY":"0.00011120","TIME_SYSTEM":"UTC","MEAN_ELEMENT_THEORY":"SGP4","PERIAPSIS":"546.442","REF_FRAME":"TEME","EPHEMERIS_TYPE":"0","MEAN_MOTION_DDOT":"0.0000000000000","SEMIMAJOR_AXIS":"6925.348","ELEMENT_SET_NO":"999","MEAN_ANOMALY":"269.9079","ARG_OF_PERICENTER":"90.2037","RA_OF_ASC_NODE":"158.7251","PERIOD":"95.592","TLE_LINE2":"2 47382  53.0514 158.7251 0001112  90.2037 269.9079 15.06400326109974","MEAN_MOTION_DOT":"0.00001002","OBJECT_ID":"2021-005AK","NORAD_CAT_ID":"47382","INCLINATION":"53.0514","EPOCH":"2023-01-13T16:13:22.484352","MEAN_MOTION":"15.06400326","OBJECT_TYPE":"PAYLOAD","SITE":"AFETR","DECAY_DATE":null,"FILE":"3743722","BSTAR":"0.00008612100000","GP_ID":"222972542","TLE_LINE1":"1 47382U 21005AK  23013.67595468  .00001002  00000-0  86121-4 0  9996","REV_AT_EPOCH":"10997","CLASSIFICATION_TYPE":"U","OBJECT_NAME":"STARLINK-2102","LAUNCH_DATE":"2021-01-20","COUNTRY_CODE":"US","APOAPSIS":"547.983"},{"INCLINATION":"53.0529","TLE_LINE2":"2 47383  53.0529 148.9369 0001414  60.2649 299.8480 15.06397700110110","PERIOD":"95.592","OBJECT_ID":"2021-005AL","MEAN_MOTION_DOT":"0.00001949","NORAD_CAT_ID":"47383","SITE":"AFETR","DECAY_DATE":null,"FILE":"3743511","MEAN_MOTION":"15.06397700","EPOCH":"2023-01-13T15:04:20.520192","OBJECT_TYPE":"PAYLOAD","TLE_LINE1":"1 47383U 21005AL  23013.62801528  .00001949  00000-0  14970-3 0  9991","CLASSIFICATION_TYPE":"U","REV_AT_EPOCH":"11011","OBJECT_NAME":"STARLINK-2103","GP_ID":"222946261","BSTAR":"0.00014970000000","APOAPSIS":"548.200","LAUNCH_DATE":"2021-01-20","COUNTRY_CODE":"US","RCS_SIZE":"LARGE","CENTER_NAME":"EARTH","TIME_SYSTEM":"UTC","ECCENTRICITY":"0.00014140","PERIAPSIS":"546.241","REF_FRAME":"TEME","MEAN_ELEMENT_THEORY":"SGP4","ARG_OF_PERICENTER":"60.2649","MEAN_ANOMALY":"299.8480","RA_OF_ASC_NODE":"148.9369","SEMIMAJOR_AXIS":"6925.356","MEAN_MOTION_DDOT":"0.0000000000000","EPHEMERIS_TYPE":"0","ELEMENT_SET_NO":"999"},{"MEAN_ELEMENT_THEORY":"SGP4","REF_FRAME":"TEME","PERIAPSIS":"546.511","ARG_OF_PERICENTER":"73.1854","MEAN_ANOMALY":"286.9250","RA_OF_ASC_NODE":"159.0228","EPHEMERIS_TYPE":"0","MEAN_MOTION_DDOT":"0.0000000000000","SEMIMAJOR_AXIS":"6925.377","ELEMENT_SET_NO":"999","RCS_SIZE":"LARGE","CENTER_NAME":"EARTH","TIME_SYSTEM":"UTC","ECCENTRICITY":"0.00010550","TLE_LINE1":"1 47384U 21005AM  23013.66124478  .00001577  00000-0  12477-3 0  9995","OBJECT_NAME":"STARLINK-2104","REV_AT_EPOCH":"10997","CLASSIFICATION_TYPE":"U","BSTAR":"0.00012477000000","GP_ID":"222972046","APOAPSIS":"547.973","LAUNCH_DATE":"2021-01-20","COUNTRY_CODE":"US","INCLINATION":"53.0536","TLE_LINE2":"2 47384  53.0536 159.0228 0001055  73.1854 286.9250 15.06390716109972","PERIOD":"95.593","OBJECT_ID":"2021-005AM","MEAN_MOTION_DOT":"0.00001577","NORAD_CAT_ID":"47384","SITE":"AFETR","FILE":"3743722","DECAY_DATE":null,"EPOCH":"2023-01-13T15:52:11.548992","MEAN_MOTION":"15.06390716","OBJECT_TYPE":"PAYLOAD"},{"TIME_SYSTEM":"UTC","ECCENTRICITY":"0.00010020","RCS_SIZE":"LARGE","CENTER_NAME":"EARTH","ARG_OF_PERICENTER":"117.2385","MEAN_ANOMALY":"242.8706","RA_OF_ASC_NODE":"158.8049","EPHEMERIS_TYPE":"0","SEMIMAJOR_AXIS":"6925.377","MEAN_MOTION_DDOT":"0.0000000000000","ELEMENT_SET_NO":"999","MEAN_ELEMENT_THEORY":"SGP4","PERIAPSIS":"546.548","REF_FRAME":"TEME","SITE":"AFETR","DECAY_DATE":null,"FILE":"3743722","EPOCH":"2023-01-13T15:46:50.577312","MEAN_MOTION":"15.06390693","OBJECT_TYPE":"PAYLOAD","INCLINATION":"53.0542","PERIOD":"95.593","TLE_LINE2":"2 47385  53.0542 158.8049 0001002 117.2385 242.8706 15.06390693109970","MEAN_MOTION_DOT":"0.00002041","OBJECT_ID":"2021-005AN","NORAD_CAT_ID":"47385","APOAPSIS":"547.936","COUNTRY_CODE":"US","LAUNCH_DATE":"2021-01-20","TLE_LINE1":"1 47385U 21005AN  23013.65752983  .00002041  00000-0  15590-3 0  9999","REV_AT_EPOCH":"10997","CLASSIFICATION_TYPE":"U","OBJECT_NAME":"STARLINK-2105","BSTAR":"0.00015590000000","GP_ID":"222972296"},{"TIME_SYSTEM":"UTC","ECCENTRICITY":"0.00011490","RCS_SIZE":"LARGE","CENTER_NAME":"EARTH","ARG_OF_PERICENTER":"66.2370","MEAN_ANOMALY":"293.8740","RA_OF_ASC_NODE":"158.6772","EPHEMERIS_TYPE":"0","MEAN_MOTION_DDOT":"0.0000000000000","SEMIMAJOR_AXIS":"6925.368","ELEMENT_SET_NO":"999","MEAN_ELEMENT_THEORY":"SGP4","REF_FRAME":"TEME","PERIAPSIS":"546.437","SITE":"AFETR","FILE":"3743722","DECAY_DATE":null,"EPOCH":"2023-01-13T16:29:18.178944","MEAN_MOTION":"15.06393819","OBJECT_TYPE":"PAYLOAD","INCLINATION":"53.0526","TLE_LINE2":"2 47386  53.0526 158.6772 0001149  66.2370 293.8740 15.06393819109981","MEAN_MOTION_DOT":"0.00001706","PERIOD":"95.593","OBJECT_ID":"2021-005AP","NORAD_CAT_ID":"47386","APOAPSIS":"548.028","LAUNCH_DATE":"2021-01-20","COUNTRY_CODE":"US","TLE_LINE1":"1 47386U 21005AP  23013.68701596  .00001706  00000-0  13343-3 0  9998","CLASSIFICATION_TYPE":"U","REV_AT_EPOCH":"10998","OBJECT_NAME":"STARLINK-2106","BSTAR":"0.00013343000000","GP_ID":"222973042"},{"EPOCH":"2023-01-13T17:44:56.568768","MEAN_MOTION":"15.06397779","OBJECT_TYPE":"PAYLOAD","SITE":"AFETR","FILE":"3743722","DECAY_DATE":null,"TLE_LINE2":"2 47387  53.0543 188.4406 0001097  87.6563 272.4552 15.06397779109566","PERIOD":"95.592","MEAN_MOTION_DOT":"0.00002281","OBJECT_ID":"2021-005AQ","NORAD_CAT_ID":"47387","INCLINATION":"53.0543","COUNTRY_CODE":"US","LAUNCH_DATE":"2021-01-20","APOAPSIS":"547.980","BSTAR":"0.00017197000000","GP_ID":"222971297","TLE_LINE1":"1 47387U 21005AQ  23013.73954362  .00002281  00000-0  17197-3 0  9996","REV_AT_EPOCH":"10956","OBJECT_NAME":"STARLINK-2108","CLASSIFICATION_TYPE":"U","ECCENTRICITY":"0.00010970","TIME_SYSTEM":"UTC","CENTER_NAME":"EARTH","RCS_SIZE":"LARGE","EPHEMERIS_TYPE":"0","MEAN_MOTION_DDOT":"0.0000000000000","SEMIMAJOR_AXIS":"6925.355","ELEMENT_SET_NO":"999","MEAN_ANOMALY":"272.4552","ARG_OF_PERICENTER":"87.6563","RA_OF_ASC_NODE":"188.4406","MEAN_ELEMENT_THEORY":"SGP4","PERIAPSIS":"546.461","REF_FRAME":"TEME"},{"MEAN_ELEMENT_THEORY":"SGP4","PERIAPSIS":"546.220","REF_FRAME":"TEME","ELEMENT_SET_NO":"999","EPHEMERIS_TYPE":"0","SEMIMAJOR_AXIS":"6925.283","MEAN_MOTION_DDOT":"0.0000000000000","RA_OF_ASC_NODE":"187.7739","ARG_OF_PERICENTER":"88.1395","MEAN_ANOMALY":"271.9747","CENTER_NAME":"EARTH","RCS_SIZE":"LARGE","ECCENTRICITY":"0.00013400","TIME_SYSTEM":"UTC","BSTAR":"0.00088905000000","GP_ID":"222971547","REV_AT_EPOCH":"10958","OBJECT_NAME":"STARLINK-2109","CLASSIFICATION_TYPE":"U","TLE_LINE1":"1 47388U 21005AR  23013.88699155  .00012993  00000-0  88905-3 0  9995","COUNTRY_CODE":"US","LAUNCH_DATE":"2021-01-20","APOAPSIS":"548.076","NORAD_CAT_ID":"47388","PERIOD":"95.591","TLE_LINE2":"2 47388  53.0532 187.7739 0001340  88.1395 271.9747 15.06421370109583","OBJECT_ID":"2021-005AR","MEAN_MOTION_DOT":"0.00012993","INCLINATION":"53.0532","OBJECT_TYPE":"PAYLOAD","EPOCH":"2023-01-13T21:17:16.069920","MEAN_MOTION":"15.06421370","FILE":"3743722","DECAY_DATE":null,"SITE":"AFETR"},{"TIME_SYSTEM":"UTC","ECCENTRICITY":"0.00014130","RCS_SIZE":"LARGE","CENTER_NAME":"EARTH","RA_OF_ASC_NODE":"167.8664","ARG_OF_PERICENTER":"79.2959","MEAN_ANOMALY":"280.8189","ELEMENT_SET_NO":"999","MEAN_MOTION_DDOT":"0.0000000000000","SEMIMAJOR_AXIS":"6925.361","EPHEMERIS_TYPE":"0","REF_FRAME":"TEME","PERIAPSIS":"546.248","MEAN_ELEMENT_THEORY":"SGP4","FILE":"3743722","DECAY_DATE":null,"SITE":"AFETR","OBJECT_TYPE":"PAYLOAD","MEAN_MOTION":"15.06395791","EPOCH":"2023-01-13T20:46:40.953792","INCLINATION":"53.0535","NORAD_CAT_ID":"47389","PERIOD":"95.592","TLE_LINE2":"2 47389  53.0535 167.8664 0001413  79.2959 280.8189 15.06395791109868","MEAN_MOTION_DOT":"-0.00002095","OBJECT_ID":"2021-005AS","APOAPSIS":"548.205","LAUNCH_DATE":"2021-01-20","COUNTRY_CODE":"US","REV_AT_EPOCH":"10986","CLASSIFICATION_TYPE":"U","OBJECT_NAME":"STARLINK-2110","TLE_LINE1":"1 47389U 21005AS  23013.86575178 -.00002095  00000-0 -12180-3 0  9998","GP_ID":"222972796","BSTAR":"-0.00012180000000"}];
